satname,norad_id,inclination_deg,eccentricity,mean_motion_rev_per_day,perigee_km,apogee_km,l1,l2
STARLINK-1168,45072,53.0534,0.0001381,15.06401689,546.249991480403,548.1627713223461,1 45072U 20006AE  25301.56403069  .00001900  00000+0  14640-3 0  9997,2 45072  53.0534 139.7544 0001381  87.3063 272.8085 15.06401689316825
STARLINK-1172,45074,53.0532,0.0001223,15.06400101,546.3642782970637,548.058218478619,1 45074U 20006AG  25300.84526657 -.00001865  00000+0 -10633-3 0  9998,2 45074  53.0532 142.9805 0001223  99.6796 260.4331 15.06400101316718
STARLINK-1153,45080,53.052,0.00014,15.0639303,546.2633682779715,548.2024718555904,1 45080U 20006AN  25301.28760286  .00006296  00000+0  44125-3 0  9996,2 45080  53.0520 140.9957 0001400  88.2346 271.8803 15.06393030316789
STARLINK-1151,45081,53.0534,0.0001243,15.0641046,546.3186828893786,548.0403165712114,1 45081U 20006AP  25301.53822553  .00003845  00000+0  27681-3 0  9996,2 45081  53.0534 139.9439 0001243  96.6756 263.4375 15.06410460316824
STARLINK-1190,45083,53.0402,0.0002788,15.88425737,304.83230346030905,308.55976636057494,1 45083U 20006AR  25301.66674769  .00261777  00000+0  89886-3 0  9991,2 45083  53.0402  91.7279 0002788 235.1647 321.9032 15.88425737  5953
STARLINK-1173,45084,53.0299,0.000599,16.28973399,191.3626333823504,199.23761105476842,1 45084U 20006AS  25301.87872419  .04053325  12086-4  94997-3 0  9990,2 45084  53.0299  49.7389 0005990 333.3749  26.6984 16.28973399318112
STARLINK-1185,45087,53.054,0.0001372,15.06402889,546.2525469761904,548.1528601908531,1 45087U 20006AV  25300.51906625  .00000081  00000+0  24309-4 0  9996,2 45087  53.0540 124.4420 0001372  90.4233 269.6913 15.06402889316957
STARLINK-1183,45088,53.0538,0.0001244,15.0639157,546.3758782199111,548.0989113693358,1 45088U 20006AW  25301.53638912  .00000909  00000+0  79933-4 0  9993,2 45088  53.0538 119.8780 0001244  89.1753 270.9378 15.06391570317104
STARLINK-1176,45090,53.0394,0.0008701,16.12656505,233.8077418501307,245.3238682714982,1 45090U 20006AY  25301.57688613  .00964808  57935-3  83637-3 0  9998,2 45090  53.0394  50.2545 0008701 356.0009   4.0955 16.12656505318084
STARLINK-1142,45093,53.0349,0.0003622,15.60350471,384.1937272067662,389.0941345130823,1 45093U 20006BB  25301.66674769  .00183118  00000+0  21512-2 0  9995,2 45093  53.0349  53.6700 0003622 331.2242 168.5021 15.60350471  5941
STARLINK-1152,45096,53.0508,0.0007804,15.23611068,489.5955330397792,500.3230617407462,1 45096U 20006BE  25301.18151470  .00070234  00000+0  28799-2 0  9992,2 45096  53.0508 104.0910 0007804 151.8148 208.3273 15.23611068317299
STARLINK-1184,45098,53.0534,0.0001379,15.06404079,546.2440525767906,548.1540602611503,1 45098U 20006BG  25301.21939566  .00000614  00000+0  60096-4 0  9991,2 45098  53.0534 121.2998 0001379  99.2103 260.9042 15.06404079317059
STARLINK-1193,45100,53.0544,0.0001405,15.06398419,546.2433913266223,548.189415633,1 45100U 20006BJ  25301.54743912  .00000948  00000+0  82538-4 0  9994,2 45100  53.0544 119.8282 0001405  87.9325 272.1825 15.06398419317103
STARLINK-1143,45179,53.0521,0.0008584,15.40096939,439.9652667231858,451.6806411721245,1 45179U 20012B   25301.14352692  .00032481  00000+0  80495-3 0  9990,2 45179  53.0521 246.1366 0008584  40.0219 320.1416 15.40096939315364
STARLINK-1202,45183,53.0541,0.0001461,15.06399342,546.2017808952914,548.2253683331946,1 45183U 20012F   25301.21202358  .00001779  00000+0  13827-3 0  9997,2 45183  53.0541 281.3366 0001461  88.8861 271.2295 15.06399342314874
STARLINK-1216,45185,53.0555,0.0001427,15.06396733,546.2333221727795,548.2098195088975,1 45185U 20012H   25301.27100148  .00001611  00000+0  12704-3 0  9997,2 45185  53.0555 281.0687 0001427  90.2887 269.8265 15.06396733314827
STARLINK-1225,45187,53.0535,0.0001046,15.06397623,546.4944508893168,547.9432353316952,1 45187U 20012K   25301.22307545  .00001471  00000+0  11761-3 0  9990,2 45187  53.0535 281.2855 0001046  84.2017 275.9092 15.06397623314860
STARLINK-1230,45189,53.0543,0.0001517,15.06393288,546.1815508310356,548.2827078248738,1 45189U 20012M   25301.22676634  .00000489  00000+0  51706-4 0  9992,2 45189  53.0543 281.2711 0001517  87.7452 272.3710 15.06393288312090
STARLINK-1234,45190,53.0533,0.0002182,15.35546594,457.80551376623316,460.7893701567036,1 45190U 20012N   25301.66674769  .00126983  00000+0  35731-2 0  9995,2 45190  53.0533 236.8821 0002182  92.7967 192.3479 15.35546594  5640
STARLINK-1269,45197,53.0539,0.0001428,15.06402247,546.2157324248165,548.1936100061166,1 45197U 20012V   25301.23781747 -.00000172  00000+0  73342-5 0  9995,2 45197  53.0539 281.2215 0001428  90.4926 269.6226 15.06402247314843
STARLINK-1154,45198,53.0549,0.0001429,15.06396282,546.2333191589278,548.2125870335221,1 45198U 20012W   25301.16226051  .00000646  00000+0  62284-4 0  9997,2 45198  53.0549 261.5564 0001429  96.2009 263.9143 15.06396282315083
STARLINK-1199,45201,53.0553,0.0001512,15.06398046,546.1704330658667,548.2646602807808,1 45201U 20012Z   25301.17331633 -.00001032  00000+0 -50417-4 0  9993,2 45201  53.0553 261.5070 0001512  89.4811 270.6351 15.06398046315146
STARLINK-1209,45206,53.0539,0.0002003,15.30127498,474.05878608877083,476.8043256522524,1 45206U 20012AE  25301.59819389  .00015241  00000+0  52680-3 0  9991,2 45206  53.0539 237.6891 0002003  89.7086 270.4143 15.30127498314563
STARLINK-1210,45207,53.024,0.0012864,15.55657393,391.52263484673585,408.9620492179165,1 45207U 20012AF  25301.03526511  .00144351  00000+0  20275-2 0  9992,2 45207  53.0240 203.1954 0012864  55.0660 305.1556 15.55657393315958
STARLINK-1231,45212,53.0506,0.0005898,15.12018442,525.9707402464073,534.1196319531309,1 45212U 20012AL  25301.20149315  .00044657  00000+0  25701-2 0  9997,2 45212  53.0506 259.8529 0005898  33.0736 327.0623 15.12018442315120
STARLINK-1271,45217,53.0557,0.0001583,15.06394353,546.1325798175612,548.3251506504948,1 45217U 20012AR  25301.15857821  .00000711  00000+0  66631-4 0  9996,2 45217  53.0557 261.5731 0001583  93.0901 267.0270 15.06394353315147
STARLINK-1191,45222,53.0539,0.0001311,15.0639561,546.3170977288137,548.1329276485403,1 45222U 20012AW  25301.10145304  .00004208  00000+0  30128-3 0  9999,2 45222  53.0539 241.8307 0001311  89.5538 270.5601 15.06395610315412
STARLINK-1212,45223,53.0543,0.000151,15.06398932,546.1691030798793,548.2605593329044,1 45223U 20012AX  25301.11995813  .00000297  00000+0  38857-4 0  9991,2 45223  53.0543 242.4029 0001510  93.8910 266.2252 15.06398932315413
STARLINK-1215,45225,53.0546,0.0001515,15.06408573,546.1360967267428,548.234469378508,1 45225U 20012AZ  25301.54007518  .00003327  00000+0  24207-3 0  9996,2 45225  53.0546 239.8611 0001515  91.7972 268.3190 15.06408573315434
STARLINK-1221,45227,53.0662,0.0001895,15.36595755,454.8896624017352,457.4798703511915,1 45227U 20012BB  25300.93766820  .00017367  00000+0  48862-3 0  9990,2 45227  53.0662 176.1482 0001895 340.6257  19.4673 15.36595755316262
STARLINK-1222,45228,53.0545,0.0001314,15.06393241,546.3222798547376,548.1422668997811,1 45228U 20012BC  25301.10882494  .00001412  00000+0  11370-3 0  9995,2 45228  53.0545 241.7966 0001314  92.7963 267.3177 15.06393241315304
STARLINK-1226,45229,53.0533,0.0001337,15.06391815,546.3107214418187,548.1625663541963,1 45229U 20012BD  25301.53636462 -.00005662  00000+0 -36163-3 0  9995,2 45229  53.0533 239.8765 0001337  93.6900 266.4241 15.06391815315377
STARLINK-1227,45230,53.0535,0.000133,15.06407554,546.2673378339878,548.1094743920139,1 45230U 20012BE  25301.53269787  .00003507  00000+0  25417-3 0  9993,2 45230  53.0535 239.8948 0001330  91.7601 268.3540 15.06407554315498
STARLINK-1246,45235,53.0544,0.0001378,15.06398541,546.2617159192787,548.1703432142276,1 45235U 20012BK  25301.21570749  .00001562  00000+0  12370-3 0  9999,2 45235  53.0544 281.3168 0001378  89.7554 270.3593 15.06398541314894
STARLINK-1270,45237,53.0541,0.0001424,15.06410016,546.1946952475973,548.1670257742708,1 45237U 20012BM  25301.55113838  .00005809  00000+0  40847-3 0  9998,2 45237  53.0541 239.8116 0001424 102.2846 257.8302 15.06410016315487
STARLINK-1279,45360,53.054,0.000125,15.33518041,464.47043161851707,466.18129733463593,1 45360U 20019A   25301.58449033  .00056749  00000+0  17253-2 0  9997,2 45360  53.0540   7.6474 0001250  40.3988 319.7105 15.33518041310253
STARLINK-1301,45361,53.0532,0.0001674,15.35860397,457.2216417534182,459.5105029820479,1 45361U 20019B   25301.66674769  .00115069  00000+0  32117-2 0  9990,2 45361  53.0532  17.0433 0001674  35.8854 237.2440 15.35860397  5800
STARLINK-1306,45362,53.0506,0.0006392,15.6819109,359.767174284505,368.38642040302875,1 45362U 20019C   25301.66674769  .00193148  00000+0  16615-2 0  9990,2 45362  53.0506   7.8794 0006392 290.0827 123.2444 15.68191090  5953
STARLINK-1262,45366,53.0547,0.000163,15.06386052,546.1254680962256,548.3831456622684,1 45366U 20019G   25301.46266636  .00004254  00000+0  30439-3 0  9992,2 45366  53.0547  40.1972 0001630  76.9398 283.1773 15.06386052309802
STARLINK-1273,45367,53.0553,0.0001153,15.06388704,546.4476820871841,548.0446754482091,1 45367U 20019H   25301.55112431  .00000751  00000+0  69333-4 0  9990,2 45367  53.0553  39.8101 0001153  92.6870 267.4251 15.06388704309812
STARLINK-1276,45368,53.0565,0.0001906,15.06399006,545.8946323909904,548.5345764225904,1 45368U 20019J   25301.52163667 -.00004636  00000+0 -29249-3 0  9994,2 45368  53.0565  39.9439 0001906  85.0756 275.0451 15.06399006309810
STARLINK-1277,45369,53.0553,0.0001075,15.06378973,546.5315215165992,548.0204853123332,1 45369U 20019K   25301.58069129  .00000841  00000+0  75360-4 0  9997,2 45369  53.0553  40.3084 0001075 111.1778 248.9326 15.06378973309812
STARLINK-1281,45370,53.0576,0.0001456,15.06385171,546.2486696929172,548.265344427773,1 45370U 20019L   25301.57693240  .00000146  00000+0  28704-4 0  9993,2 45370  53.0576  39.6982 0001456  85.5258 274.5897 15.06385171309824
